[{"COMMENT":"GENERATED VIA SPACETRACK.ORG API","ORIGINATOR":"18 SPCS","NORAD_CAT_ID":"43476","OBJECT_NAME":"GRACE-FO 1","OBJECT_TYPE":"PAYLOAD","CLASSIFICATION_TYPE":"U","INTLDES":"18047A","EPOCH":"2023-12-05 22:30:32","EPOCH_MICROSECONDS":"112288","MEAN_MOTION":"15.27520588","ECCENTRICITY":"0.0016765","INCLINATION":"88.9816","RA_OF_ASC_NODE":"325.789","ARG_OF_PERICENTER":"95.5136","MEAN_ANOMALY":"264.8026","EPHEMERIS_TYPE":"0","ELEMENT_SET_NO":"999","REV_AT_EPOCH":"30820","BSTAR":"0.00013787","MEAN_MOTION_DOT":"0.00003753","MEAN_MOTION_DDOT":"0","FILE":"4124334","TLE_LINE0":"0 GRACE-FO 1","TLE_LINE1":"1 43476U 18047A   23339.93787167  .00003753  00000-0  13787-3 0  9999","TLE_LINE2":"2 43476  88.9816 325.7890 0016765  95.5136 264.8026 15.27520588308208","OBJECT_ID":"2018-047A","OBJECT_NUMBER":"43476","SEMIMAJOR_AXIS":"6861.364","PERIOD":"94.270","APOGEE":"494.732","PERIGEE":"471.726","DECAYED":"0"},{"COMMENT":"GENERATED VIA SPACETRACK.ORG API","ORIGINATOR":"18 SPCS","NORAD_CAT_ID":"43476","OBJECT_NAME":"GRACE-FO 1","OBJECT_TYPE":"PAYLOAD","CLASSIFICATION_TYPE":"U","INTLDES":"18047A","EPOCH":"2023-12-06 14:13:53","EPOCH_MICROSECONDS":"921280","MEAN_MOTION":"15.2752462","ECCENTRICITY":"0.0016778","INCLINATION":"88.9815","RA_OF_ASC_NODE":"325.6993","ARG_OF_PERICENTER":"93.4106","MEAN_ANOMALY":"266.9063","EPHEMERIS_TYPE":"0","ELEMENT_SET_NO":"999","REV_AT_EPOCH":"30830","BSTAR":"0.00012606","MEAN_MOTION_DOT":"0.00003435","MEAN_MOTION_DDOT":"0","FILE":"4125534","TLE_LINE0":"0 GRACE-FO 1","TLE_LINE1":"1 43476U 18047A   23340.59298520  .00003435  00000-0  12606-3 0  9999","TLE_LINE2":"2 43476  88.9815 325.6993 0016778  93.4106 266.9063 15.27524620308304","OBJECT_ID":"2018-047A","OBJECT_NUMBER":"43476","SEMIMAJOR_AXIS":"6861.352","PERIOD":"94.270","APOGEE":"494.729","PERIGEE":"471.705","DECAYED":"0"},{"COMMENT":"GENERATED VIA SPACETRACK.ORG API","ORIGINATOR":"18 SPCS","NORAD_CAT_ID":"43476","OBJECT_NAME":"GRACE-FO 1","OBJECT_TYPE":"PAYLOAD","CLASSIFICATION_TYPE":"U","INTLDES":"18047A","EPOCH":"2023-12-06 22:05:34","EPOCH_MICROSECONDS":"767456","MEAN_MOTION":"15.27527175","ECCENTRICITY":"0.001678","INCLINATION":"88.9814","RA_OF_ASC_NODE":"325.6545","ARG_OF_PERICENTER":"92.3528","MEAN_ANOMALY":"267.9643","EPHEMERIS_TYPE":"0","ELEMENT_SET_NO":"999","REV_AT_EPOCH":"30835","BSTAR":"0.00013094","MEAN_MOTION_DOT":"0.00003567","MEAN_MOTION_DDOT":"0","FILE":"4126527","TLE_LINE0":"0 GRACE-FO 1","TLE_LINE1":"1 43476U 18047A   23340.92054129  .00003567  00000-0  13094-3 0  9999","TLE_LINE2":"2 43476  88.9814 325.6545 0016780  92.3528 267.9643 15.27527175308353","OBJECT_ID":"2018-047A","OBJECT_NUMBER":"43476","SEMIMAJOR_AXIS":"6861.344","PERIOD":"94.270","APOGEE":"494.723","PERIGEE":"471.696","DECAYED":"0"},{"COMMENT":"GENERATED VIA SPACETRACK.ORG API","ORIGINATOR":"18 SPCS","NORAD_CAT_ID":"43476","OBJECT_NAME":"GRACE-FO 1","OBJECT_TYPE":"PAYLOAD","CLASSIFICATION_TYPE":"U","INTLDES":"18047A","EPOCH":"2023-12-07 02:48:35","EPOCH_MICROSECONDS":"253216","MEAN_MOTION":"15.27528405","ECCENTRICITY":"0.0016783","INCLINATION":"88.9814","RA_OF_ASC_NODE":"325.6275","ARG_OF_PERICENTER":"91.7361","MEAN_ANOMALY":"268.5811","EPHEMERIS_TYPE":"0","ELEMENT_SET_NO":"999","REV_AT_EPOCH":"30838","BSTAR":"0.00012968","MEAN_MOTION_DOT":"0.00003533","MEAN_MOTION_DDOT":"0","FILE":"4126059","TLE_LINE0":"0 GRACE-FO 1","TLE_LINE1":"1 43476U 18047A   23341.11707469  .00003533  00000-0  12968-3 0  9995","TLE_LINE2":"2 43476  88.9814 325.6275 0016783  91.7361 268.5811 15.27528405308388","OBJECT_ID":"2018-047A","OBJECT_NUMBER":"43476","SEMIMAJOR_AXIS":"6861.341","PERIOD":"94.270","APOGEE":"494.721","PERIGEE":"471.690","DECAYED":"0"},{"COMMENT":"GENERATED VIA SPACETRACK.ORG API","ORIGINATOR":"18 SPCS","NORAD_CAT_ID":"43476","OBJECT_NAME":"GRACE-FO 1","OBJECT_TYPE":"PAYLOAD","CLASSIFICATION_TYPE":"U","INTLDES":"18047A","EPOCH":"2023-12-07 13:48:56","EPOCH_MICROSECONDS":"324160","MEAN_MOTION":"15.27530654","ECCENTRICITY":"0.0016772","INCLINATION":"88.9812","RA_OF_ASC_NODE":"325.5646","ARG_OF_PERICENTER":"90.258","MEAN_ANOMALY":"270.0592","EPHEMERIS_TYPE":"0","ELEMENT_SET_NO":"999","REV_AT_EPOCH":"30845","BSTAR":"0.0001186","MEAN_MOTION_DOT":"0.00003234","MEAN_MOTION_DDOT":"0","FILE":"4127218","TLE_LINE0":"0 GRACE-FO 1","TLE_LINE1":"1 43476U 18047A   23341.57565190  .00003234  00000-0  11860-3 0  9996","TLE_LINE2":"2 43476  88.9812 325.5646 0016772  90.2580 270.0592 15.27530654308453","OBJECT_ID":"2018-047A","OBJECT_NUMBER":"43476","SEMIMAJOR_AXIS":"6861.334","PERIOD":"94.270","APOGEE":"494.707","PERIGEE":"471.691","DECAYED":"0"},{"COMMENT":"GENERATED VIA SPACETRACK.ORG API","ORIGINATOR":"18 SPCS","NORAD_CAT_ID":"43476","OBJECT_NAME":"GRACE-FO 1","OBJECT_TYPE":"PAYLOAD","CLASSIFICATION_TYPE":"U","INTLDES":"18047A","EPOCH":"2023-12-08 03:57:57","EPOCH_MICROSECONDS":"592224","MEAN_MOTION":"15.2753402","ECCENTRICITY":"0.0016768","INCLINATION":"88.9812","RA_OF_ASC_NODE":"325.4838","ARG_OF_PERICENTER":"88.4366","MEAN_ANOMALY":"271.8804","EPHEMERIS_TYPE":"0","ELEMENT_SET_NO":"999","REV_AT_EPOCH":"30854","BSTAR":"0.00011022","MEAN_MOTION_DOT":"0.00003008","MEAN_MOTION_DDOT":"0","FILE":"4127706","TLE_LINE0":"0 GRACE-FO 1","TLE_LINE1":"1 43476U 18047A   23342.16524991  .00003008  00000-0  11022-3 0  9995","TLE_LINE2":"2 43476  88.9812 325.4838 0016768  88.4366 271.8804 15.27534020308547","OBJECT_ID":"2018-047A","OBJECT_NUMBER":"43476","SEMIMAJOR_AXIS":"6861.324","PERIOD":"94.270","APOGEE":"494.694","PERIGEE":"471.684","DECAYED":"0"},{"COMMENT":"GENERATED VIA SPACETRACK.ORG API","ORIGINATOR":"18 SPCS","NORAD_CAT_ID":"43476","OBJECT_NAME":"GRACE-FO 1","OBJECT_TYPE":"PAYLOAD","CLASSIFICATION_TYPE":"U","INTLDES":"18047A","EPOCH":"2023-12-08 13:23:58","EPOCH_MICROSECONDS":"383168","MEAN_MOTION":"15.27536311","ECCENTRICITY":"0.0016761","INCLINATION":"88.9811","RA_OF_ASC_NODE":"325.4299","ARG_OF_PERICENTER":"87.2102","MEAN_ANOMALY":"273.1066","EPHEMERIS_TYPE":"0","ELEMENT_SET_NO":"999","REV_AT_EPOCH":"30860","BSTAR":"0.00010729","MEAN_MOTION_DOT":"0.00002929","MEAN_MOTION_DDOT":"0","FILE":"4128726","TLE_LINE0":"0 GRACE-FO 1","TLE_LINE1":"1 43476U 18047A   23342.55831462  .00002929  00000-0  10729-3 0  9996","TLE_LINE2":"2 43476  88.9811 325.4299 0016761  87.2102 273.1066 15.27536311308602","OBJECT_ID":"2018-047A","OBJECT_NUMBER":"43476","SEMIMAJOR_AXIS":"6861.317","PERIOD":"94.269","APOGEE":"494.682","PERIGEE":"471.682","DECAYED":"0"},{"COMMENT":"GENERATED VIA SPACETRACK.ORG API","ORIGINATOR":"18 SPCS","NORAD_CAT_ID":"43476","OBJECT_NAME":"GRACE-FO 1","OBJECT_TYPE":"PAYLOAD","CLASSIFICATION_TYPE":"U","INTLDES":"18047A","EPOCH":"2023-12-08 22:49:59","EPOCH_MICROSECONDS":"124000","MEAN_MOTION":"15.27538333","ECCENTRICITY":"0.0016752","INCLINATION":"88.981","RA_OF_ASC_NODE":"325.376","ARG_OF_PERICENTER":"85.9703","MEAN_ANOMALY":"274.346","EPHEMERIS_TYPE":"0","ELEMENT_SET_NO":"999","REV_AT_EPOCH":"30866","BSTAR":"0.00010223","MEAN_MOTION_DOT":"0.00002793","MEAN_MOTION_DDOT":"0","FILE":"4129181","TLE_LINE0":"0 GRACE-FO 1","TLE_LINE1":"1 43476U 18047A   23342.95137875  .00002793  00000-0  10223-3 0  9995","TLE_LINE2":"2 43476  88.9810 325.3760 0016752  85.9703 274.3460 15.27538333308668","OBJECT_ID":"2018-047A","OBJECT_NUMBER":"43476","SEMIMAJOR_AXIS":"6861.311","PERIOD":"94.269","APOGEE":"494.670","PERIGEE":"471.682","DECAYED":"0"},{"COMMENT":"GENERATED VIA SPACETRACK.ORG API","ORIGINATOR":"18 SPCS","NORAD_CAT_ID":"43476","OBJECT_NAME":"GRACE-FO 1","OBJECT_TYPE":"PAYLOAD","CLASSIFICATION_TYPE":"U","INTLDES":"18047A","EPOCH":"2023-12-09 11:24:40","EPOCH_MICROSECONDS":"42944","MEAN_MOTION":"15.27541131","ECCENTRICITY":"0.0016743","INCLINATION":"88.981","RA_OF_ASC_NODE":"325.3041","ARG_OF_PERICENTER":"84.363","MEAN_ANOMALY":"275.9529","EPHEMERIS_TYPE":"0","ELEMENT_SET_NO":"999","REV_AT_EPOCH":"30874","BSTAR":"0.000099","MEAN_MOTION_DOT":"0.00002706","MEAN_MOTION_DDOT":"0","FILE":"4129836","TLE_LINE0":"0 GRACE-FO 1","TLE_LINE1":"1 43476U 18047A   23343.47546346  .00002706  00000-0  99000-4 0  9995","TLE_LINE2":"2 43476  88.9810 325.3041 0016743  84.3630 275.9529 15.27541131308744","OBJECT_ID":"2018-047A","OBJECT_NUMBER":"43476","SEMIMAJOR_AXIS":"6861.302","PERIOD":"94.269","APOGEE":"494.655","PERIGEE":"471.680","DECAYED":"0"},{"COMMENT":"GENERATED VIA SPACETRACK.ORG API","ORIGINATOR":"18 SPCS","NORAD_CAT_ID":"43476","OBJECT_NAME":"GRACE-FO 1","OBJECT_TYPE":"PAYLOAD","CLASSIFICATION_TYPE":"U","INTLDES":"18047A","EPOCH":"2023-12-09 12:59:00","EPOCH_MICROSECONDS":"141504","MEAN_MOTION":"15.27541535","ECCENTRICITY":"0.0016743","INCLINATION":"88.981","RA_OF_ASC_NODE":"325.2951","ARG_OF_PERICENTER":"84.1514","MEAN_ANOMALY":"276.1643","EPHEMERIS_TYPE":"0","ELEMENT_SET_NO":"999","REV_AT_EPOCH":"30875","BSTAR":"0.000098319","MEAN_MOTION_DOT":"0.00002688","MEAN_MOTION_DDOT":"0","FILE":"4130247","TLE_LINE0":"0 GRACE-FO 1","TLE_LINE1":"1 43476U 18047A   23343.54097386  .00002688  00000-0  98319-4 0  9999","TLE_LINE2":"2 43476  88.9810 325.2951 0016743  84.1514 276.1643 15.27541535308751","OBJECT_ID":"2018-047A","OBJECT_NUMBER":"43476","SEMIMAJOR_AXIS":"6861.301","PERIOD":"94.269","APOGEE":"494.654","PERIGEE":"471.678","DECAYED":"0"}]